[{"OBJECT_NAME":"SITRO-AIS 21","OBJECT_ID":"2024-199E","EPOCH":"2026-03-09T22:38:47.668992","MEAN_MOTION":14.94747634,"ECCENTRICITY":0.00136926,"INCLINATION":97.333,"RA_OF_ASC_NODE":273.2344,"ARG_OF_PERICENTER":42.1108,"MEAN_ANOMALY":318.1163,"EPHEMERIS_TYPE":0,"CLASSIFICATION_TYPE":"U","NORAD_CAT_ID":61739,"ELEMENT_SET_NO":999,"REV_AT_EPOCH":11692,"BSTAR":0.00018121744,"MEAN_MOTION_DOT":1.92e-5,"MEAN_MOTION_DDOT":0},{"OBJECT_NAME":"STARLINK-34049","OBJECT_ID":"2025-102W","EPOCH":"2026-03-09T12:40:44.661216","MEAN_MOTION":14.98327398,"ECCENTRICITY":0.00034015,"INCLINATION":70.0009,"RA_OF_ASC_NODE":115.0399,"ARG_OF_PERICENTER":268.4205,"MEAN_ANOMALY":91.6564,"EPHEMERIS_TYPE":0,"CLASSIFICATION_TYPE":"U","NORAD_CAT_ID":64042,"ELEMENT_SET_NO":999,"REV_AT_EPOCH":4592,"BSTAR":0.00010151791,"MEAN_MOTION_DOT":1.118e-5,"MEAN_MOTION_DDOT":0}]
